ONEWEB-0444             
1 51638U 22012S   24059.92712985  .00000584  00000+0  16359-2 0  9995
2 51638  87.8947 203.0087 0001752  96.7511 263.3816 13.10371928 99420
ONEWEB-0445             
1 51639U 22012T   24059.94823736 -.00000484  00000+0 -14233-2 0  9995
2 51639  87.8943 202.9817 0001546 114.7436 245.3852 13.10368491 99436
ONEWEB-0446             
1 51640U 22012U   24059.92549785  .00000600  00000+0  16811-2 0  9996
2 51640  87.8952 203.0002 0001431 110.0645 250.0637 13.10380054 99411
ONEWEB-0448             
1 51641U 22012V   24059.93037809  .00000454  00000+0  12634-2 0  9993
2 51641  87.8951 203.0006 0001804  98.7984 261.3347 13.10371695 99387
ONEWEB-0449             
1 51642U 22012W   24059.93525084  .00000334  00000+0  92194-3 0  9998
2 51642  87.8943 203.0009 0001868 108.9476 251.1854 13.10370730 99392
ONEWEB-0451             
1 51643U 22012X   24059.80988665 -.00002495  00000+0 -64605-2 0  9990
2 51643  87.9254 172.8174 0002231  93.8089 266.3297 13.17662365103123
ONEWEB-0452             
1 51644U 22012Y   24059.80831405  .00000015  00000+0  48438-5 0  9993
2 51644  87.9261 172.8513 0002262 108.4177 251.7201 13.17649438103134
ONEWEB-0455             
1 51645U 22012Z   24059.74700894  .00000364  00000+0  15440-3 0  9996
2 51645  87.5377 148.7682 0016227 349.5355  10.5495 14.22743130106747
